[{"OBJECT_NAME":"GEOEYE 1","OBJECT_ID":"2008-042A","EPOCH":"2026-03-09T21:23:49.829280","MEAN_MOTION":14.64767673,"ECCENTRICITY":0.00039854,"INCLINATION":98.1206,"RA_OF_ASC_NODE":144.0766,"ARG_OF_PERICENTER":27.9279,"MEAN_ANOMALY":332.2138,"EPHEMERIS_TYPE":0,"CLASSIFICATION_TYPE":"U","NORAD_CAT_ID":33331,"ELEMENT_SET_NO":999,"REV_AT_EPOCH":93561,"BSTAR":0.00013730387,"MEAN_MOTION_DOT":6.84e-6,"MEAN_MOTION_DDOT":0},{"OBJECT_NAME":"NOAA 16 DEB","OBJECT_ID":"2000-055GT","EPOCH":"2026-03-08T21:41:06.002880","MEAN_MOTION":14.56664544,"ECCENTRICITY":0.00362466,"INCLINATION":98.989,"RA_OF_ASC_NODE":313.6735,"ARG_OF_PERICENTER":352.2362,"MEAN_ANOMALY":7.8268,"EPHEMERIS_TYPE":0,"CLASSIFICATION_TYPE":"U","NORAD_CAT_ID":41291,"ELEMENT_SET_NO":999,"REV_AT_EPOCH":53610,"BSTAR":0.0029283292,"MEAN_MOTION_DOT":0.00013157,"MEAN_MOTION_DDOT":0}]
